[
    {
        "Altitude(m)": 617719.7181754517,
        "Argument of Periapsis(deg)": 0.0,
        "Eccentricity": 0.0,
        "Inclination(deg)": 60.0,
        "Latitude(deg)": -41.102497253149906,
        "Longitude(deg)": 105.09461844502043,
        "Mean Anomaly(deg)": -130.90909999999997,
        "RAAN(deg)": 355.0,
        "Satellite Name": "Test1 1576",
        "Satellite Number": 1576,
        "Semi-Major Axis(m)": 6980739.136638005,
        "Time(s)": 0
    },
    {
        "Altitude(m)": 617911.2540787323,
        "Argument of Periapsis(deg)": 0.00010418945913296404,
        "Eccentricity": 0.0,
        "Inclination(deg)": 60.0,
        "Latitude(deg)": -41.56568953878143,
        "Longitude(deg)": 105.59902341742632,
        "Mean Anomaly(deg)": -130.2889938545382,
        "RAAN(deg)": 354.99957995086027,
        "Satellite Name": "Test1 1576",
        "Satellite Number": 1576,
        "Semi-Major Axis(m)": 6980739.136638005,
        "Time(s)": 10
    }
]